TEVEL2-4                
1 63213U 25052D   26068.69417973  .00020990  00000+0  70363-3 0  9998
2 63213  97.4009 325.1237 0004733  95.3468 264.8313 15.30925813 54879
STARLINK-34124          
1 64109U 25110P   26068.30770503  .00041515  00000+0  14061-2 0  9995
2 64109  53.1599  28.5599 0001167  76.6304 283.4827 15.30197963 45820
